start=new Date('2023-06-15T00:00:00.000Z').valueOf();
sats=[{"MEAN_MOTION_DOT":"0.00000435","SEMIMAJOR_AXIS":"6925.338","TLE_LINE2":"2 48022  53.0538 139.2984 0000898  81.9235 278.1856 15.06403326123969","MEAN_ELEMENT_THEORY":"SGP4","BSTAR":"0.00004808600000","ECCENTRICITY":"0.00008980","MEAN_ANOMALY":"278.1856","MEAN_MOTION_DDOT":"0.0000000000000","ARG_OF_PERICENTER":"81.9235","EPOCH":"2023-06-14T02:02:37.411008","COUNTRY_CODE":"US","MEAN_MOTION":"15.06403326","FILE":"3933215","APOAPSIS":"547.825","RCS_SIZE":"LARGE","NORAD_CAT_ID":"48022","REV_AT_EPOCH":"12396","CLASSIFICATION_TYPE":"U","ELEMENT_SET_NO":"999","LAUNCH_DATE":"2021-03-24","INCLINATION":"53.0538","OBJECT_TYPE":"PAYLOAD","REF_FRAME":"TEME","EPHEMERIS_TYPE":"0","SITE":"AFETR","RA_OF_ASC_NODE":"139.2984","TIME_SYSTEM":"UTC","OBJECT_NAME":"STARLINK-2298","PERIAPSIS":"546.581","TLE_LINE1":"1 48022U 21024AX  23165.08515522  .00000435  00000-0  48086-4 0  9992","PERIOD":"95.592","DECAY_DATE":null,"OBJECT_ID":"2021-024AX","GP_ID":"233944702","CENTER_NAME":"EARTH"},{"TLE_LINE1":"1 48023U 21024AY  23165.33944248  .00002056  00000-0  15682-3 0  9998","PERIOD":"95.591","DECAY_DATE":null,"CENTER_NAME":"EARTH","GP_ID":"233912826","OBJECT_ID":"2021-024AY","ELEMENT_SET_NO":"999","CLASSIFICATION_TYPE":"U","LAUNCH_DATE":"2021-03-24","INCLINATION":"53.0533","OBJECT_TYPE":"PAYLOAD","REF_FRAME":"TEME","EPHEMERIS_TYPE":"0","SITE":"AFETR","RA_OF_ASC_NODE":"137.8693","OBJECT_NAME":"STARLINK-2292","TIME_SYSTEM":"UTC","PERIAPSIS":"546.304","EPOCH":"2023-06-14T08:08:47.830272","ARG_OF_PERICENTER":"89.5241","COUNTRY_CODE":"US","APOAPSIS":"548.046","FILE":"3932965","MEAN_MOTION":"15.06412585","RCS_SIZE":"LARGE","NORAD_CAT_ID":"48023","REV_AT_EPOCH":"12400","SEMIMAJOR_AXIS":"6925.310","MEAN_MOTION_DOT":"0.00002056","MEAN_ELEMENT_THEORY":"SGP4","TLE_LINE2":"2 48023  53.0533 137.8693 0001258  89.5241 270.5892 15.06412585124007","ECCENTRICITY":"0.00012580","BSTAR":"0.00015682000000","MEAN_ANOMALY":"270.5892","MEAN_MOTION_DDOT":"0.0000000000000"},{"TLE_LINE1":"1 48026U 21024BB  23165.65047531  .00000497  00000-0  52241-4 0  9995","PERIOD":"95.593","DECAY_DATE":null,"GP_ID":"233945703","OBJECT_ID":"2021-024BB","CENTER_NAME":"EARTH","ELEMENT_SET_NO":"999","CLASSIFICATION_TYPE":"U","LAUNCH_DATE":"2021-03-24","INCLINATION":"53.0540","OBJECT_TYPE":"PAYLOAD","REF_FRAME":"TEME","EPHEMERIS_TYPE":"0","RA_OF_ASC_NODE":"141.4817","SITE":"AFETR","TIME_SYSTEM":"UTC","OBJECT_NAME":"STARLINK-2278","PERIAPSIS":"546.343","ARG_OF_PERICENTER":"95.7077","EPOCH":"2023-06-14T15:36:41.066784","COUNTRY_CODE":"US","MEAN_MOTION":"15.06393856","FILE":"3933215","APOAPSIS":"548.122","RCS_SIZE":"LARGE","NORAD_CAT_ID":"48026","REV_AT_EPOCH":"12392","MEAN_MOTION_DOT":"0.00000497","SEMIMAJOR_AXIS":"6925.367","TLE_LINE2":"2 48026  53.0540 141.4817 0001284  95.7077 264.4059 15.06393856123928","MEAN_ELEMENT_THEORY":"SGP4","BSTAR":"0.00005224100000","ECCENTRICITY":"0.00012840","MEAN_ANOMALY":"264.4059","MEAN_MOTION_DDOT":"0.0000000000000"},{"ARG_OF_PERICENTER":"104.9457","EPOCH":"2023-06-14T21:22:03.781056","MEAN_MOTION":"15.07225893","APOAPSIS":"545.559","FILE":"3933215","COUNTRY_CODE":"US","REV_AT_EPOCH":"12431","NORAD_CAT_ID":"48027","RCS_SIZE":"LARGE","TLE_LINE2":"2 48027  53.0560 114.8684 0001265 104.9457 255.1672 15.07225893124319","MEAN_ELEMENT_THEORY":"SGP4","MEAN_MOTION_DOT":"0.00000069","SEMIMAJOR_AXIS":"6922.818","BSTAR":"0.00002318000000","ECCENTRICITY":"0.00012650","MEAN_MOTION_DDOT":"0.0000000000000","MEAN_ANOMALY":"255.1672","PERIOD":"95.540","TLE_LINE1":"1 48027U 21024BC  23165.89032154  .00000069  00000-0  23180-4 0  9992","OBJECT_ID":"2021-024BC","GP_ID":"233944452","CENTER_NAME":"EARTH","DECAY_DATE":null,"OBJECT_TYPE":"PAYLOAD","LAUNCH_DATE":"2021-03-24","INCLINATION":"53.0560","CLASSIFICATION_TYPE":"U","ELEMENT_SET_NO":"999","EPHEMERIS_TYPE":"0","REF_FRAME":"TEME","SITE":"AFETR","RA_OF_ASC_NODE":"114.8684","PERIAPSIS":"543.808","TIME_SYSTEM":"UTC","OBJECT_NAME":"STARLINK-2300"},{"RCS_SIZE":"LARGE","NORAD_CAT_ID":"48028","REV_AT_EPOCH":"12497","COUNTRY_CODE":"US","APOAPSIS":"548.073","FILE":"3933215","MEAN_MOTION":"15.06379544","EPOCH":"2023-06-14T19:02:25.766592","ARG_OF_PERICENTER":"100.7071","MEAN_ANOMALY":"259.4048","MEAN_MOTION_DDOT":"0.0000000000000","ECCENTRICITY":"0.00011500","BSTAR":"0.00042882000000","SEMIMAJOR_AXIS":"6925.411","MEAN_MOTION_DOT":"0.00006108","MEAN_ELEMENT_THEORY":"SGP4","TLE_LINE2":"2 48028  53.0537  71.2307 0001150 100.7071 259.4048 15.06379544124979","DECAY_DATE":null,"CENTER_NAME":"EARTH","GP_ID":"233945203","OBJECT_ID":"2021-024BD","TLE_LINE1":"1 48028U 21024BD  23165.79335378  .00006108  00000-0  42882-3 0  9995","PERIOD":"95.593","OBJECT_NAME":"STARLINK-2264","TIME_SYSTEM":"UTC","PERIAPSIS":"546.480","RA_OF_ASC_NODE":"71.2307","SITE":"AFETR","REF_FRAME":"TEME","EPHEMERIS_TYPE":"0","CLASSIFICATION_TYPE":"U","ELEMENT_SET_NO":"999","INCLINATION":"53.0537","LAUNCH_DATE":"2021-03-24","OBJECT_TYPE":"PAYLOAD"},{"RCS_SIZE":"LARGE","NORAD_CAT_ID":"48029","REV_AT_EPOCH":"12353","COUNTRY_CODE":"US","APOAPSIS":"548.255","FILE":"3933215","MEAN_MOTION":"15.06391332","EPOCH":"2023-06-14T17:10:13.093248","ARG_OF_PERICENTER":"83.0753","MEAN_ANOMALY":"277.0403","MEAN_MOTION_DDOT":"0.0000000000000","ECCENTRICITY":"0.00014650","BSTAR":"0.00008124000000","SEMIMAJOR_AXIS":"6925.375","MEAN_MOTION_DOT":"0.00000929","MEAN_ELEMENT_THEORY":"SGP4","TLE_LINE2":"2 48029  53.0521 136.1880 0001465  83.0753 277.0403 15.06391332123530","DECAY_DATE":null,"CENTER_NAME":"EARTH","GP_ID":"233945454","OBJECT_ID":"2021-024BE","TLE_LINE1":"1 48029U 21024BE  23165.71542932  .00000929  00000-0  81240-4 0  9991","PERIOD":"95.593","OBJECT_NAME":"STARLINK-2299","TIME_SYSTEM":"UTC","PERIAPSIS":"546.226","SITE":"AFETR","RA_OF_ASC_NODE":"136.1880","REF_FRAME":"TEME","EPHEMERIS_TYPE":"0","CLASSIFICATION_TYPE":"U","ELEMENT_SET_NO":"999","INCLINATION":"53.0521","LAUNCH_DATE":"2021-03-24","OBJECT_TYPE":"PAYLOAD"},{"REV_AT_EPOCH":"12387","NORAD_CAT_ID":"48030","RCS_SIZE":"LARGE","ARG_OF_PERICENTER":"89.8214","EPOCH":"2023-06-14T08:16:06.094272","MEAN_MOTION":"15.06407801","APOAPSIS":"548.039","FILE":"3932965","COUNTRY_CODE":"US","MEAN_MOTION_DDOT":"0.0000000000000","MEAN_ANOMALY":"270.2915","TLE_LINE2":"2 48030  53.0539 142.8491 0001226  89.8214 270.2915 15.06407801123873","MEAN_ELEMENT_THEORY":"SGP4","MEAN_MOTION_DOT":"0.00001500","SEMIMAJOR_AXIS":"6925.325","BSTAR":"0.00011954000000","ECCENTRICITY":"0.00012260","PERIOD":"95.592","TLE_LINE1":"1 48030U 21024BF  23165.34451498  .00001500  00000-0  11954-3 0  9998","OBJECT_ID":"2021-024BF","GP_ID":"233913578","CENTER_NAME":"EARTH","DECAY_DATE":null,"RA_OF_ASC_NODE":"142.8491","SITE":"AFETR","PERIAPSIS":"546.341","TIME_SYSTEM":"UTC","OBJECT_NAME":"STARLINK-2268","LAUNCH_DATE":"2021-03-24","OBJECT_TYPE":"PAYLOAD","INCLINATION":"53.0539","CLASSIFICATION_TYPE":"U","ELEMENT_SET_NO":"999","EPHEMERIS_TYPE":"0","REF_FRAME":"TEME"},{"MEAN_MOTION_DDOT":"0.0000000000000","MEAN_ANOMALY":"253.0348","MEAN_ELEMENT_THEORY":"SGP4","TLE_LINE2":"2 48031  53.0554  26.4833 0000617 107.0708 253.0348 15.06391298125538","SEMIMAJOR_AXIS":"6925.375","MEAN_MOTION_DOT":"0.00009070","ECCENTRICITY":"0.00006170","BSTAR":"0.00062714000000","REV_AT_EPOCH":"12553","RCS_SIZE":"LARGE","NORAD_CAT_ID":"48031","EPOCH":"2023-06-14T15:33:21.449088","ARG_OF_PERICENTER":"107.0708","FILE":"3933215","APOAPSIS":"547.668","MEAN_MOTION":"15.06391298","COUNTRY_CODE":"US","SITE":"AFETR","RA_OF_ASC_NODE":"26.4833","PERIAPSIS":"546.813","OBJECT_NAME":"STARLINK-2267","TIME_SYSTEM":"UTC","LAUNCH_DATE":"2021-03-24","OBJECT_TYPE":"PAYLOAD","INCLINATION":"53.0554","CLASSIFICATION_TYPE":"U","ELEMENT_SET_NO":"999","EPHEMERIS_TYPE":"0","REF_FRAME":"TEME","PERIOD":"95.593","TLE_LINE1":"1 48031U 21024BG  23165.64816492  .00009070  00000-0  62714-3 0  9991","CENTER_NAME":"EARTH","OBJECT_ID":"2021-024BG","GP_ID":"233944953","DECAY_DATE":null},{"MEAN_ANOMALY":"274.4683","MEAN_MOTION_DDOT":"0.0000000000000","SEMIMAJOR_AXIS":"6925.375","MEAN_MOTION_DOT":"-0.00000091","MEAN_ELEMENT_THEORY":"SGP4","TLE_LINE2":"2 48033  53.0539 136.5330 0001417  85.6468 274.4683 15.06391268124053","ECCENTRICITY":"0.00014170","BSTAR":"0.00001277300000","RCS_SIZE":"LARGE","NORAD_CAT_ID":"48033","REV_AT_EPOCH":"12405","EPOCH":"2023-06-14T15:18:45.335808","ARG_OF_PERICENTER":"85.6468","COUNTRY_CODE":"US","FILE":"3933215","APOAPSIS":"548.222","MEAN_MOTION":"15.06391268","SITE":"AFETR","RA_OF_ASC_NODE":"136.5330","OBJECT_NAME":"STARLINK-2286","TIME_SYSTEM":"UTC","PERIAPSIS":"546.259","ELEMENT_SET_NO":"999","CLASSIFICATION_TYPE":"U","LAUNCH_DATE":"2021-03-24","OBJECT_TYPE":"PAYLOAD","INCLINATION":"53.0539","REF_FRAME":"TEME","EPHEMERIS_TYPE":"0","TLE_LINE1":"1 48033U 21024BJ  23165.63802472 -.00000091  00000-0  12773-4 0  9991","PERIOD":"95.593","DECAY_DATE":null,"CENTER_NAME":"EARTH","GP_ID":"233944703","OBJECT_ID":"2021-024BJ"},{"RA_OF_ASC_NODE":"136.4479","SITE":"AFETR","PERIAPSIS":"546.736","TIME_SYSTEM":"UTC","OBJECT_NAME":"STARLINK-2288","INCLINATION":"53.0545","LAUNCH_DATE":"2021-03-24","OBJECT_TYPE":"PAYLOAD","ELEMENT_SET_NO":"999","CLASSIFICATION_TYPE":"U","EPHEMERIS_TYPE":"0","REF_FRAME":"TEME","PERIOD":"95.592","TLE_LINE1":"1 48034U 21024BK  23165.65643940  .00000700  00000-0  65874-4 0  9993","GP_ID":"233945955","OBJECT_ID":"2021-024BK","CENTER_NAME":"EARTH","DECAY_DATE":null,"MEAN_MOTION_DDOT":"0.0000000000000","MEAN_ANOMALY":"271.3816","TLE_LINE2":"2 48034  53.0545 136.4479 0000665  88.7250 271.3816 15.06405439124051","MEAN_ELEMENT_THEORY":"SGP4","MEAN_MOTION_DOT":"0.00000700","SEMIMAJOR_AXIS":"6925.332","BSTAR":"0.00006587400000","ECCENTRICITY":"0.00006650","REV_AT_EPOCH":"12405","NORAD_CAT_ID":"48034","RCS_SIZE":"LARGE","ARG_OF_PERICENTER":"88.7250","EPOCH":"2023-06-14T15:45:16.364160","MEAN_MOTION":"15.06405439","APOAPSIS":"547.657","FILE":"3933215","COUNTRY_CODE":"US"}];
